OBJECT_NAME,OBJECT_ID,EPOCH,MEAN_MOTION,ECCENTRICITY,INCLINATION,RA_OF_ASC_NODE,ARG_OF_PERICENTER,MEAN_ANOMALY,EPHEMERIS_TYPE,CLASSIFICATION_TYPE,NORAD_CAT_ID,ELEMENT_SET_NO,REV_AT_EPOCH,BSTAR,MEAN_MOTION_DOT,MEAN_MOTION_DDOT
IRIDIUM 138,2017-083B,2026-07-13T19:53:03.143040,14.34218321,.000206,86.3999,310.5783,91.9349,268.2083,0,U,43071,999,44795,.41149E-4,.135E-5,0
IRIDIUM 116,2017-083C,2026-07-13T19:07:23.070720,14.34217419,.0002427,86.3984,310.8778,99.0489,261.0982,0,U,43072,999,44798,.34346E-4,.116E-5,0
IRIDIUM 130,2017-083D,2026-07-13T20:02:11.414112,14.34217605,.0002236,86.3992,311.1397,100.8684,259.2764,0,U,43073,999,44793,.39703E-4,.131E-5,0
IRIDIUM 151,2017-083E,2026-07-13T19:25:39.243072,14.34217870,.0002239,86.3986,310.9307,95.2353,264.9098,0,U,43074,999,44795,.41445E-4,.136E-5,0
IRIDIUM 134,2017-083F,2026-07-13T20:20:27.189024,14.34218094,.0002199,86.3987,310.9232,95.3757,264.7689,0,U,43075,999,44792,.26491E-4,.94E-6,0
IRIDIUM 137,2017-083G,2026-07-13T20:38:43.294848,14.34218270,.0002664,86.3989,311.0114,93.4500,266.7000,0,U,43076,999,44799,.36949E-4,.123E-5,0
IRIDIUM 141,2017-083H,2026-07-13T20:29:35.149056,14.34217594,.0002168,86.3984,310.8430,92.9990,267.1453,0,U,43077,999,44799,.22479E-4,.83E-6,0
IRIDIUM 153,2017-083J,2026-07-14T05:23:31.410240,14.34217815,.0002114,86.3960,279.1676,94.3286,265.8152,0,U,43078,999,44915,.17397E-4,.69E-6,0
IRIDIUM 131,2017-083K,2026-07-13T20:11:19.246272,14.34217941,.0002252,86.3991,311.0359,93.1963,266.9490,0,U,43079,999,44792,.17373E-4,.68E-6,0
IRIDIUM 144,2018-030A,2026-07-14T03:52:11.447904,14.34217807,.0002373,86.3958,279.1226,96.8234,263.3232,0,U,43249,999,43400,.13813E-4,.58E-6,0
IRIDIUM 149,2018-030B,2026-07-14T04:01:19.463232,14.34217940,.0002262,86.3957,279.0866,93.1611,266.9843,0,U,43250,999,43402,.29469E-4,.102E-5,0
IRIDIUM 157,2018-030C,2026-07-14T04:28:43.669056,14.34217764,.0002265,86.3960,279.1326,94.0844,266.0611,0,U,43251,999,43400,.4161E-4,.136E-5,0
IRIDIUM 140,2018-030D,2026-07-14T03:15:39.649248,14.34217440,.000223,86.3959,279.1663,95.1185,265.0265,0,U,43252,999,43405,.48548E-4,.156E-5,0
IRIDIUM 145,2018-030E,2026-07-14T04:37:51.369888,14.34217324,.0002492,86.3958,279.1141,99.2157,260.9321,0,U,43253,999,43399,.36196E-4,.121E-5,0
IRIDIUM 146,2018-030F,2026-07-14T04:10:27.410304,14.34217590,.0002372,86.3959,279.1347,96.6199,263.5267,0,U,43254,999,43400,.20248E-4,.76E-6,0
IRIDIUM 148,2018-030G,2026-07-14T05:05:15.718272,14.34217786,.0002344,86.3960,279.1622,93.5628,266.5836,0,U,43255,999,43404,.4383E-4,.143E-5,0
IRIDIUM 142,2018-030H,2026-07-14T04:19:35.468832,14.34218017,.0002417,86.3955,279.0636,97.2174,262.9297,0,U,43256,999,43400,.27655E-4,.97E-6,0
IRIDIUM 150,2018-030J,2026-07-14T03:33:55.227168,14.34216224,.0002116,86.3955,279.1940,93.4439,266.6999,0,U,43257,999,43402,-.75557E-4,-.192E-5,0
IRIDIUM 143,2018-030K,2026-07-14T04:46:59.537280,14.34217342,.0002323,86.3962,279.2662,95.6302,264.5158,0,U,43258,999,43396,.14807E-4,.61E-6,0
IRIDIUM 161,2018-047C,2026-07-14T03:19:42.021984,14.43275486,.0002277,86.4464,77.2004,81.3031,278.8427,0,U,43478,999,42902,.48189E-4,.182E-5,0
IRIDIUM 152,2018-047D,2026-07-14T04:07:42.369024,14.34219950,.0002122,86.3938,77.0475,83.4945,276.6492,0,U,43479,999,42635,.46485E-4,.15E-5,0
IRIDIUM 147,2018-047E,2026-07-14T04:16:50.200320,14.34217432,.0002259,86.3938,77.0505,88.7064,271.4390,0,U,43480,999,42635,.33494E-4,.114E-5,0
IRIDIUM 110,2018-047F,2026-07-14T04:25:58.258848,14.34218401,.000214,86.3942,77.1406,77.2706,282.8729,0,U,43481,999,42634,.50853E-4,.162E-5,0
IRIDIUM 162,2018-047G,2026-07-14T03:10:38.316288,14.43278245,.0002201,86.4459,77.0933,86.1847,273.9606,0,U,43482,999,42901,.5993E-4,.222E-5,0
IRIDIUM 160,2018-061A,2026-07-14T03:07:58.372608,14.34216847,.0002241,86.3940,45.5272,86.7208,273.4244,0,U,43569,999,41723,.43297E-4,.141E-5,0
IRIDIUM 166,2018-061B,2026-07-14T02:04:02.515008,14.34217539,.0002298,86.3939,45.4960,90.8457,269.3002,0,U,43570,999,41725,.47647E-5,.33E-6,0
IRIDIUM 158,2018-061C,2026-07-14T02:58:50.472192,14.34217626,.0002072,86.3939,45.4899,86.8809,273.2624,0,U,43571,999,41722,.17097E-4,.68E-6,0
IRIDIUM 165,2018-061D,2026-07-14T01:54:54.478944,14.34216972,.0002163,86.3937,45.5549,91.3502,268.7942,0,U,43572,999,41724,-.16679E-5,.15E-6,0
IRIDIUM 155,2018-061E,2026-07-14T02:40:34.439808,14.34217591,.000211,86.3938,45.4100,89.3134,270.8304,0,U,43573,999,41721,.26361E-4,.94E-6,0
IRIDIUM 154,2018-061F,2026-07-14T02:13:10.425792,14.34217563,.0002286,86.3940,45.5529,90.6108,269.5349,0,U,43574,999,41726,.24356E-4,.88E-6,0
IRIDIUM 163,2018-061G,2026-07-14T01:45:46.454112,14.34217388,.0002118,86.3936,45.4752,85.5347,274.6090,0,U,43575,999,41723,.14867E-4,.61E-6,0
