IRIDIUM 138             
1 43071U 17083B   26194.82850860  .00000135  00000+0  41149-4 0  9994
2 43071  86.3999 310.5783 0002060  91.9349 268.2083 14.34218321447958
IRIDIUM 116             
1 43072U 17083C   26194.79679480  .00000116  00000+0  34346-4 0  9998
2 43072  86.3984 310.8778 0002427  99.0489 261.0982 14.34217419447980
IRIDIUM 130             
1 43073U 17083D   26194.83485433  .00000131  00000+0  39703-4 0  9996
2 43073  86.3992 311.1397 0002236 100.8684 259.2764 14.34217605447936
IRIDIUM 151             
1 43074U 17083E   26194.80948198  .00000136  00000+0  41445-4 0  9997
2 43074  86.3986 310.9307 0002239  95.2353 264.9098 14.34217870447950
IRIDIUM 134             
1 43075U 17083F   26194.84753691  .00000094  00000+0  26491-4 0  9991
2 43075  86.3987 310.9232 0002199  95.3757 264.7689 14.34218094447923
IRIDIUM 137             
1 43076U 17083G   26194.86022332  .00000123  00000+0  36949-4 0  9997
2 43076  86.3989 311.0114 0002664  93.4500 266.7000 14.34218270447991
IRIDIUM 141             
1 43077U 17083H   26194.85387904  .00000083  00000+0  22479-4 0  9994
2 43077  86.3984 310.8430 0002168  92.9990 267.1453 14.34217594447996
IRIDIUM 153             
1 43078U 17083J   26195.22466910  .00000069  00000+0  17397-4 0  9999
2 43078  86.3960 279.1676 0002114  94.3286 265.8152 14.34217815449152
IRIDIUM 131             
1 43079U 17083K   26194.84119498  .00000068  00000+0  17373-4 0  9996
2 43079  86.3991 311.0359 0002252  93.1963 266.9490 14.34217941447923
IRIDIUM 144             
1 43249U 18030A   26195.16124361  .00000058  00000+0  13813-4 0  9993
2 43249  86.3958 279.1226 0002373  96.8234 263.3232 14.34217807434008
IRIDIUM 149             
1 43250U 18030B   26195.16758638  .00000102  00000+0  29469-4 0  9999
2 43250  86.3957 279.0866 0002262  93.1611 266.9843 14.34217940434021
IRIDIUM 157             
1 43251U 18030C   26195.18661654  .00000136  00000+0  41610-4 0  9992
2 43251  86.3960 279.1326 0002265  94.0844 266.0611 14.34217764434005
IRIDIUM 140             
1 43252U 18030D   26195.13587557  .00000156  00000+0  48548-4 0  9996
2 43252  86.3959 279.1663 0002230  95.1185 265.0265 14.34217440434050
IRIDIUM 145             
1 43253U 18030E   26195.19295567  .00000121  00000+0  36196-4 0  9998
2 43253  86.3958 279.1141 0002492  99.2157 260.9321 14.34217324433995
IRIDIUM 146             
1 43254U 18030F   26195.17392836  .00000076  00000+0  20248-4 0  9994
2 43254  86.3959 279.1347 0002372  96.6199 263.5267 14.34217590434005
IRIDIUM 148             
1 43255U 18030G   26195.21198748  .00000143  00000+0  43830-4 0  9993
2 43255  86.3960 279.1622 0002344  93.5628 266.5836 14.34217786434042
IRIDIUM 142             
1 43256U 18030H   26195.18027163  .00000097  00000+0  27655-4 0  9997
2 43256  86.3955 279.0636 0002417  97.2174 262.9297 14.34218017434004
IRIDIUM 150             
1 43257U 18030J   26195.14855587 -.00000192  00000+0 -75557-4 0  9995
2 43257  86.3955 279.1940 0002116  93.4439 266.6999 14.34216224434022
IRIDIUM 143             
1 43258U 18030K   26195.19930020  .00000061  00000+0  14807-4 0  9991
2 43258  86.3962 279.2662 0002323  95.6302 264.5158 14.34217342433964
IRIDIUM 161             
1 43478U 18047C   26195.13868081  .00000182  00000+0  48189-4 0  9998
2 43478  86.4464  77.2004 0002277  81.3031 278.8427 14.43275486429023
IRIDIUM 152             
1 43479U 18047D   26195.17201816  .00000150  00000+0  46485-4 0  9992
2 43479  86.3938  77.0475 0002122  83.4945 276.6492 14.34219950426350
IRIDIUM 147             
1 43480U 18047E   26195.17835880  .00000114  00000+0  33494-4 0  9994
2 43480  86.3938  77.0505 0002259  88.7064 271.4390 14.34217432426350
IRIDIUM 110             
1 43481U 18047F   26195.18470207  .00000162  00000+0  50853-4 0  9995
2 43481  86.3942  77.1406 0002140  77.2706 282.8729 14.34218401426340
IRIDIUM 162             
1 43482U 18047G   26195.13238792  .00000222  00000+0  59930-4 0  9994
2 43482  86.4459  77.0933 0002201  86.1847 273.9606 14.43278245429016
IRIDIUM 160             
1 43569U 18061A   26195.13053672  .00000141  00000+0  43297-4 0  9997
2 43569  86.3940  45.5272 0002241  86.7208 273.4244 14.34216847417237
IRIDIUM 166             
1 43570U 18061B   26195.08614022  .00000033  00000+0  47647-5 0  9999
2 43570  86.3939  45.4960 0002298  90.8457 269.3002 14.34217539417251
IRIDIUM 158             
1 43571U 18061C   26195.12419528  .00000068  00000+0  17097-4 0  9992
2 43571  86.3939  45.4899 0002072  86.8809 273.2624 14.34217626417227
IRIDIUM 165             
1 43572U 18061D   26195.07979721  .00000015  00000+0 -16679-5 0  9992
2 43572  86.3937  45.5549 0002163  91.3502 268.7942 14.34216972417248
IRIDIUM 155             
1 43573U 18061E   26195.11150972  .00000094  00000+0  26361-4 0  9991
2 43573  86.3938  45.4100 0002110  89.3134 270.8304 14.34217591417213
IRIDIUM 154             
1 43574U 18061F   26195.09248178  .00000088  00000+0  24356-4 0  9990
2 43574  86.3940  45.5529 0002286  90.6108 269.5349 14.34217563417261
IRIDIUM 163             
1 43575U 18061G   26195.07345433  .00000061  00000+0  14867-4 0  9998
2 43575  86.3936  45.4752 0002118  85.5347 274.6090 14.34217388417238
